{
  "norad_id": 58853,
  "name": "STARLINK-31238",
  "history": [
    {
      "epoch": "2026-03-28T20:08:37.491648",
      "apogee_km": 483.74836846102244,
      "perigee_km": 482.39533807515727,
      "latitude_deg": -32.15449739892172,
      "longitude_deg": 145.87499072006904,
      "semi_major_axis_km": 6861.208853268089,
      "eccentricity": 9.86e-05,
      "inclination_deg": 43.0005,
      "raan_deg": 140.5534,
      "arg_perigee_deg": 267.9988,
      "mean_anomaly_deg": 92.0751,
      "mean_motion_rev_day": 15.275724
    }
  ]
}